[{"OBJECT_NAME":"STARLINK-3672","OBJECT_ID":"2022-025U","EPOCH":"2026-03-09T06:50:30.117984","MEAN_MOTION":15.06421762,"ECCENTRICITY":0.00016158,"INCLINATION":53.0558,"RA_OF_ASC_NODE":32.701,"ARG_OF_PERICENTER":75.7429,"MEAN_ANOMALY":284.374,"EPHEMERIS_TYPE":0,"CLASSIFICATION_TYPE":"U","NORAD_CAT_ID":51974,"ELEMENT_SET_NO":999,"REV_AT_EPOCH":22085,"BSTAR":0.00017516348,"MEAN_MOTION_DOT":2.33e-5,"MEAN_MOTION_DDOT":0},{"OBJECT_NAME":"PEGASUS DEB","OBJECT_ID":"1994-029EN","EPOCH":"2026-03-09T15:28:18.113376","MEAN_MOTION":15.06103636,"ECCENTRICITY":0.0063203,"INCLINATION":81.992,"RA_OF_ASC_NODE":119.5258,"ARG_OF_PERICENTER":162.6478,"MEAN_ANOMALY":325.8514,"EPHEMERIS_TYPE":0,"CLASSIFICATION_TYPE":"U","NORAD_CAT_ID":24091,"ELEMENT_SET_NO":999,"REV_AT_EPOCH":61530,"BSTAR":0.00036871,"MEAN_MOTION_DOT":5.666e-5,"MEAN_MOTION_DDOT":0}]
